OBJECT_NAME,OBJECT_ID,EPOCH,MEAN_MOTION,ECCENTRICITY,INCLINATION,RA_OF_ASC_NODE,ARG_OF_PERICENTER,MEAN_ANOMALY,EPHEMERIS_TYPE,CLASSIFICATION_TYPE,NORAD_CAT_ID,ELEMENT_SET_NO,REV_AT_EPOCH,BSTAR,MEAN_MOTION_DOT,MEAN_MOTION_DDOT
STARLINK-35089,2025-195AC,2026-06-30T05:19:37.821792,15.34413227,.00012883,53.1590,93.9824,84.1960,275.9189,0,U,65484,999,4722,.87737437E-3,.29396E-3,0
STARLINK-35143,2025-195AD,2026-06-30T01:03:06.154272,15.31714198,.00010059,53.1596,95.7163,83.2005,276.9110,0,U,65485,999,4718,.1040343E-2,.32071E-3,0
STARLINK-35242,2025-198B,2026-06-30T18:14:19.037184,15.34403538,.00017178,53.1579,103.5368,63.0577,297.0601,0,U,65493,999,4596,.92730211E-3,.31088E-3,0
STARLINK-35223,2025-198C,2026-06-30T01:51:01.560960,15.34418291,.00011741,53.1583,107.0893,107.0311,253.0820,0,U,65494,999,4585,.65868548E-3,.21957E-3,0
STARLINK-34446,2025-198D,2026-06-30T01:40:18.305184,15.30203626,.00014775,53.1602,109.1700,89.4603,270.6567,0,U,65495,999,4582,.76212455E-3,.22283E-3,0
STARLINK-35212,2025-198E,2026-06-30T19:36:48.856032,15.34418646,.00011943,53.1591,105.3028,94.7626,265.3513,0,U,65496,999,4594,.10002661E-2,.33591E-3,0
STARLINK-34455,2025-198F,2026-06-30T18:53:41.933760,15.34408465,.00010995,53.1594,103.7029,83.7159,276.3968,0,U,65497,999,4596,.88020198E-3,.29488E-3,0
STARLINK-35166,2025-198H,2026-06-30T19:39:50.762592,15.34409347,.00014876,53.1601,105.3194,103.2519,256.8650,0,U,65499,999,4594,.12980212E-2,.43749E-3,0
STARLINK-35140,2025-198K,2026-06-30T18:26:25.849536,15.34412228,.00013564,53.1594,103.5841,87.7810,272.3348,0,U,65501,999,4596,.99777727E-3,.33499E-3,0
STARLINK-35114,2025-198L,2026-06-30T19:20:57.896160,15.34415013,.00007529,53.1572,103.8197,86.3343,273.7746,0,U,65502,999,4596,.10160268E-2,.34125E-3,0
STARLINK-35126,2025-198M,2026-06-30T02:37:11.252064,15.34411657,.00011346,53.1609,108.7067,91.6881,268.4252,0,U,65503,999,4583,.74019582E-3,.24724E-3,0
STARLINK-35182,2025-198N,2026-06-30T19:27:01.562400,15.34388683,.00011695,53.1580,103.8437,88.5214,271.5923,0,U,65504,999,4596,.75532097E-3,.2522E-3,0
STARLINK-35184,2025-198Q,2026-06-30T01:48:00.467424,15.34415133,.00011447,53.1588,107.0768,92.3389,267.7745,0,U,65506,999,4585,.78705319E-3,.26322E-3,0
STARLINK-35163,2025-198R,2026-06-30T02:40:12.500256,15.34409747,.00013174,53.1593,108.7165,110.6114,249.5030,0,U,65507,999,4583,.61677228E-3,.20526E-3,0
STARLINK-35119,2025-198S,2026-06-30T02:24:21.156768,15.34411766,.00013585,53.1587,107.2321,144.1694,215.9400,0,U,65508,999,4585,.68389632E-3,.22809E-3,0
STARLINK-35168,2025-198T,2026-06-30T19:11:52.574784,15.34404631,.00012345,53.1586,103.7790,95.2746,264.8397,0,U,65509,999,4596,.12019434E-2,.40459E-3,0
STARLINK-35124,2025-198V,2026-06-30T02:39:22.764960,15.34408074,.00013574,53.1593,106.5858,100.6192,259.4964,0,U,65511,999,4585,.62959955E-3,.20961E-3,0
STARLINK-35149,2025-198W,2026-06-30T19:08:50.800416,15.34405220,.00010585,53.1590,103.7622,83.8757,276.2366,0,U,65512,999,4596,.11909398E-2,.40083E-3,0
STARLINK-35019,2025-198X,2026-06-30T02:06:10.700640,15.34411598,.0001001,53.1582,107.1519,100.5462,259.5654,0,U,65513,999,4585,.11521119E-2,.38765E-3,0
STARLINK-35026,2025-198Y,2026-06-30T02:19:01.818048,15.34390331,.00011757,53.1593,108.6239,80.8876,279.2260,0,U,65514,999,4583,.17169992E-2,.58067E-3,0
STARLINK-35241,2025-198Z,2026-06-30T18:51:50.551200,15.30219959,.0001366,53.1605,105.8127,84.8121,275.3036,0,U,65515,999,4593,.78719669E-3,.23042E-3,0
STARLINK-35232,2025-198AC,2026-06-29T23:19:47.707680,15.34422904,.00013112,53.1586,107.8475,108.7387,251.3758,0,U,65518,999,4583,.11615628E-2,.39102E-3,0
STARLINK-35164,2025-198AD,2026-06-30T19:30:04.520448,15.34426058,.00010305,53.1573,103.8484,98.6454,261.4665,0,U,65519,999,4596,.1383392E-2,.46694E-3,0
