[
  {
    "name": "STARLINK-35089",
    "noradId": "65484",
    "line1": "1 65484U 25195AC  26181.22196553  .00029396  00000+0  87737-3 0  9993",
    "line2": "2 65484  53.1590  93.9824 0001288  84.1960 275.9189 15.34413227 47222"
  },
  {
    "name": "STARLINK-35143",
    "noradId": "65485",
    "line1": "1 65485U 25195AD  26181.04382123  .00032071  00000+0  10403-2 0  9993",
    "line2": "2 65485  53.1596  95.7163 0001005  83.2005 276.9110 15.31714198 47180"
  },
  {
    "name": "STARLINK-35242",
    "noradId": "65493",
    "line1": "1 65493U 25198B   26181.75994256  .00031088  00000+0  92730-3 0  9990",
    "line2": "2 65493  53.1579 103.5368 0001718  63.0577 297.0601 15.34403538 45965"
  },
  {
    "name": "STARLINK-35223",
    "noradId": "65494",
    "line1": "1 65494U 25198C   26181.07710140  .00021957  00000+0  65869-3 0  9991",
    "line2": "2 65494  53.1583 107.0893 0001174 107.0311 253.0820 15.34418291 45859"
  },
  {
    "name": "STARLINK-34446",
    "noradId": "65495",
    "line1": "1 65495U 25198D   26181.06965631  .00022283  00000+0  76212-3 0  9995",
    "line2": "2 65495  53.1602 109.1700 0001477  89.4603 270.6567 15.30203626 45825"
  },
  {
    "name": "STARLINK-35212",
    "noradId": "65496",
    "line1": "1 65496U 25198E   26181.81723213  .00033591  00000+0  10003-2 0  9996",
    "line2": "2 65496  53.1591 105.3028 0001194  94.7626 265.3513 15.34418646 45943"
  },
  {
    "name": "STARLINK-34455",
    "noradId": "65497",
    "line1": "1 65497U 25198F   26181.78729089  .00029488  00000+0  88020-3 0  9995",
    "line2": "2 65497  53.1594 103.7029 0001099  83.7159 276.3968 15.34408465 45969"
  },
  {
    "name": "STARLINK-35166",
    "noradId": "65499",
    "line1": "1 65499U 25198H   26181.81933752  .00043749  00000+0  12980-2 0  9992",
    "line2": "2 65499  53.1601 105.3194 0001488 103.2519 256.8650 15.34409347 45940"
  },
  {
    "name": "STARLINK-35140",
    "noradId": "65501",
    "line1": "1 65501U 25198K   26181.76835473  .00033499  00000+0  99778-3 0  9993",
    "line2": "2 65501  53.1594 103.5841 0001356  87.7810 272.3348 15.34412228 45969"
  },
  {
    "name": "STARLINK-35114",
    "noradId": "65502",
    "line1": "1 65502U 25198L   26181.80622565  .00034125  00000+0  10160-2 0  9999",
    "line2": "2 65502  53.1572 103.8197 0000753  86.3343 273.7746 15.34415013 45961"
  },
  {
    "name": "STARLINK-35126",
    "noradId": "65503",
    "line1": "1 65503U 25198M   26181.10915801  .00024724  00000+0  74020-3 0  9991",
    "line2": "2 65503  53.1609 108.7067 0001134  91.6881 268.4252 15.34411657 45832"
  },
  {
    "name": "STARLINK-35182",
    "noradId": "65504",
    "line1": "1 65504U 25198N   26181.81043475  .00025220  00000+0  75532-3 0  9990",
    "line2": "2 65504  53.1580 103.8437 0001170  88.5214 271.5923 15.34388683 45969"
  },
  {
    "name": "STARLINK-35184",
    "noradId": "65506",
    "line1": "1 65506U 25198Q   26181.07500541  .00026322  00000+0  78705-3 0  9991",
    "line2": "2 65506  53.1588 107.0768 0001144  92.3389 267.7745 15.34415133 45857"
  },
  {
    "name": "STARLINK-35163",
    "noradId": "65507",
    "line1": "1 65507U 25198R   26181.11125579  .00020526  00000+0  61677-3 0  9991",
    "line2": "2 65507  53.1593 108.7165 0001317 110.6114 249.5030 15.34409747 45832"
  },
  {
    "name": "STARLINK-35119",
    "noradId": "65508",
    "line1": "1 65508U 25198S   26181.10024487  .00022809  00000+0  68390-3 0  9992",
    "line2": "2 65508  53.1587 107.2321 0001358 144.1694 215.9400 15.34411766 45858"
  },
  {
    "name": "STARLINK-35168",
    "noradId": "65509",
    "line1": "1 65509U 25198T   26181.79991405  .00040459  00000+0  12019-2 0  9998",
    "line2": "2 65509  53.1586 103.7790 0001234  95.2746 264.8397 15.34404631 45969"
  },
  {
    "name": "STARLINK-35124",
    "noradId": "65511",
    "line1": "1 65511U 25198V   26181.11068015  .00020961  00000+0  62960-3 0  9996",
    "line2": "2 65511  53.1593 106.5858 0001357 100.6192 259.4964 15.34408074 45851"
  },
  {
    "name": "STARLINK-35149",
    "noradId": "65512",
    "line1": "1 65512U 25198W   26181.79781019  .00040083  00000+0  11909-2 0  9990",
    "line2": "2 65512  53.1590 103.7622 0001058  83.8757 276.2366 15.34405220 45969"
  },
  {
    "name": "STARLINK-35019",
    "noradId": "65513",
    "line1": "1 65513U 25198X   26181.08762385  .00038765  00000+0  11521-2 0  9992",
    "line2": "2 65513  53.1582 107.1519 0001001 100.5462 259.5654 15.34411598 45859"
  },
  {
    "name": "STARLINK-35026",
    "noradId": "65514",
    "line1": "1 65514U 25198Y   26181.09654882  .00058067  00000+0  17170-2 0  9999",
    "line2": "2 65514  53.1593 108.6239 0001175  80.8876 279.2260 15.34390331 45839"
  },
  {
    "name": "STARLINK-35241",
    "noradId": "65515",
    "line1": "1 65515U 25198Z   26181.78600175  .00023042  00000+0  78720-3 0  9996",
    "line2": "2 65515  53.1605 105.8127 0001366  84.8121 275.3036 15.30219959 45939"
  },
  {
    "name": "STARLINK-35232",
    "noradId": "65518",
    "line1": "1 65518U 25198AC  26180.97207995  .00039102  00000+0  11616-2 0  9996",
    "line2": "2 65518  53.1586 107.8475 0001311 108.7387 251.3758 15.34422904 45832"
  },
  {
    "name": "STARLINK-35164",
    "noradId": "65519",
    "line1": "1 65519U 25198AD  26181.81255231  .00046694  00000+0  13834-2 0  9995",
    "line2": "2 65519  53.1573 103.8484 0001031  98.6454 261.4665 15.34426058 45963"
  }
]